[{"OBJECT_NAME":"POLYITAN-1","OBJECT_ID":"2014-033AJ","EPOCH":"2026-03-09T22:27:50.258304","MEAN_MOTION":15.29568085,"ECCENTRICITY":0.00093607,"INCLINATION":98.1053,"RA_OF_ASC_NODE":86.0432,"ARG_OF_PERICENTER":127.248,"MEAN_ANOMALY":232.9614,"EPHEMERIS_TYPE":0,"CLASSIFICATION_TYPE":"U","NORAD_CAT_ID":40042,"ELEMENT_SET_NO":999,"REV_AT_EPOCH":63840,"BSTAR":0.00083772474,"MEAN_MOTION_DOT":0.00024003,"MEAN_MOTION_DDOT":0},{"OBJECT_NAME":"STARLINK-32616","OBJECT_ID":"2024-207J","EPOCH":"2026-03-09T23:10:23.967552","MEAN_MOTION":15.27586336,"ECCENTRICITY":0.00023795,"INCLINATION":43.0046,"RA_OF_ASC_NODE":280.2373,"ARG_OF_PERICENTER":264.898,"MEAN_ANOMALY":95.16,"EPHEMERIS_TYPE":0,"CLASSIFICATION_TYPE":"U","NORAD_CAT_ID":61920,"ELEMENT_SET_NO":999,"REV_AT_EPOCH":7476,"BSTAR":0.001015076,"MEAN_MOTION_DOT":0.00027782,"MEAN_MOTION_DDOT":0}]
